{
  "type": "FeatureCollection",
  "features": [
    {
      "type": "Feature",
      "properties": {
        "norad_id": 66955,
        "name": "HULIANWANG DIGUI-116",
        "group": "last-30-days",
        "lat": -51.065593022762584,
        "lon": -17.708982706327987,
        "alt_km": 1010.5066286730607,
        "timestamp": "2025-12-11T08:58:25.857211+00:00",
        "meta_object_name": "HULIANWANG DIGUI-116",
        "meta_object_id": "2025-287C",
        "meta_epoch": "2025-12-09T09:52:18.926688",
        "meta_mean_motion": 13.69296672,
        "meta_eccentricity": 0.00076324,
        "meta_inclination": 86.4914,
        "meta_ra_of_asc_node": 347.3632,
        "meta_arg_of_pericenter": 209.8722,
        "meta_mean_anomaly": 150.2003,
        "meta_ephemeris_type": 0,
        "meta_classification_type": "U",
        "meta_norad_cat_id": 66955,
        "meta_element_set_no": 999,
        "meta_rev_at_epoch": 7,
        "meta_bstar": 3.470494e-06,
        "meta_mean_motion_dot": 2e-07,
        "meta_mean_motion_ddot": 0,
        "tle_line1": "1 66955U 25287C   25343.41133017  .00000020  00000+0  34705-5 0  9997",
        "tle_line2": "2 66955  86.4914 347.3632 0007632 209.8722 150.2003 13.69296672    70"
      },
      "geometry": {
        "type": "Point",
        "coordinates": [
          -17.708982706327987,
          -51.065593022762584
        ]
      }
    },
    {
      "type": "Feature",
      "properties": {
        "norad_id": 66956,
        "name": "HULIANWANG DIGUI-117",
        "group": "last-30-days",
        "lat": -50.17694449015324,
        "lon": -17.55560910185825,
        "alt_km": 1010.7169980477902,
        "timestamp": "2025-12-11T08:58:25.857221+00:00",
        "meta_object_name": "HULIANWANG DIGUI-117",
        "meta_object_id": "2025-287D",
        "meta_epoch": "2025-12-10T08:40:06.191328",
        "meta_mean_motion": 13.69398761,
        "meta_eccentricity": 0.00070713,
        "meta_inclination": 86.4971,
        "meta_ra_of_asc_node": 347.0263,
        "meta_arg_of_pericenter": 199.7388,
        "meta_mean_anomaly": 160.3499,
        "meta_ephemeris_type": 0,
        "meta_classification_type": "U",
        "meta_norad_cat_id": 66956,
        "meta_element_set_no": 999,
        "meta_rev_at_epoch": 20,
        "meta_bstar": 1.0798013e-05,
        "meta_mean_motion_dot": 2.6e-07,
        "meta_mean_motion_ddot": 0,
        "tle_line1": "1 66956U 25287D   25344.36118277  .00000026  00000+0  10798-4 0  9995",
        "tle_line2": "2 66956  86.4971 347.0263 0007071 199.7388 160.3499 13.69398761   201"
      },
      "geometry": {
        "type": "Point",
        "coordinates": [
          -17.55560910185825,
          -50.17694449015324
        ]
      }
    },
    {
      "type": "Feature",
      "properties": {
        "norad_id": 66957,
        "name": "HULIANWANG DIGUI-118",
        "group": "last-30-days",
        "lat": -49.23923531327883,
        "lon": -17.424196155081024,
        "alt_km": 1010.4973336566318,
        "timestamp": "2025-12-11T08:58:25.857233+00:00",
        "meta_object_name": "HULIANWANG DIGUI-118",
        "meta_object_id": "2025-287E",
        "meta_epoch": "2025-12-10T08:39:56.683872",
        "meta_mean_motion": 13.69509074,
        "meta_eccentricity": 0.00068996,
        "meta_inclination": 86.4942,
        "meta_ra_of_asc_node": 347.0238,
        "meta_arg_of_pericenter": 197.517,
        "meta_mean_anomaly": 162.5753,
        "meta_ephemeris_type": 0,
        "meta_classification_type": "U",
        "meta_norad_cat_id": 66957,
        "meta_element_set_no": 999,
        "meta_rev_at_epoch": 20,
        "meta_bstar": -0.00019874691,
        "meta_mean_motion_dot": -1.56e-06,
        "meta_mean_motion_ddot": 0,
        "tle_line1": "1 66957U 25287E   25344.36107273 -.00000156  00000+0 -19875-3 0  9990",
        "tle_line2": "2 66957  86.4942 347.0238 0006899 197.5170 162.5753 13.69509074   202"
      },
      "geometry": {
        "type": "Point",
        "coordinates": [
          -17.424196155081024,
          -49.23923531327883
        ]
      }
    },
    {
      "type": "Feature",
      "properties": {
        "norad_id": 66958,
        "name": "CZ-6A R/B",
        "group": "last-30-days",
        "lat": 7.45959307023194,
        "lon": 166.1618850779835,
        "alt_km": 881.1770062936403,
        "timestamp": "2025-12-11T08:58:25.857244+00:00",
        "meta_object_name": "CZ-6A R/B",
        "meta_object_id": "2025-287F",
        "meta_epoch": "2025-12-10T23:33:10.774944",
        "meta_mean_motion": 13.94919329,
        "meta_eccentricity": 0.01071902,
        "meta_inclination": 86.5059,
        "meta_ra_of_asc_node": 346.7694,
        "meta_arg_of_pericenter": 107.4137,
        "meta_mean_anomaly": 253.8791,
        "meta_ephemeris_type": 0,
        "meta_classification_type": "U",
        "meta_norad_cat_id": 66958,
        "meta_element_set_no": 999,
        "meta_rev_at_epoch": 29,
        "meta_bstar": 0.00050888467,
        "meta_mean_motion_dot": 7.36e-06,
        "meta_mean_motion_ddot": 0,
        "tle_line1": "1 66958U 25287F   25344.98137471  .00000736  00000+0  50888-3 0  9993",
        "tle_line2": "2 66958  86.5059 346.7694 0107190 107.4137 253.8791 13.94919329   295"
      },
      "geometry": {
        "type": "Point",
        "coordinates": [
          166.1618850779835,
          7.45959307023194
        ]
      }
    },
    {
      "type": "Feature",
      "properties": {
        "norad_id": 66988,
        "name": "YAOGAN-47",
        "group": "last-30-days",
        "lat": 70.62232518338683,
        "lon": 28.413741545725202,
        "alt_km": 488.5424832619474,
        "timestamp": "2025-12-11T08:58:25.857254+00:00",
        "meta_object_name": "YAOGAN-47",
        "meta_object_id": "2025-289A",
        "meta_epoch": "2025-12-10T10:35:37.042080",
        "meta_mean_motion": 15.23753581,
        "meta_eccentricity": 0.00031837,
        "meta_inclination": 97.5219,
        "meta_ra_of_asc_node": 49.5452,
        "meta_arg_of_pericenter": 188.4341,
        "meta_mean_anomaly": 171.6843,
        "meta_ephemeris_type": 0,
        "meta_classification_type": "U",
        "meta_norad_cat_id": 66988,
        "meta_element_set_no": 999,
        "meta_rev_at_epoch": 19,
        "meta_bstar": 0.00024588331,
        "meta_mean_motion_dot": 5.84e-05,
        "meta_mean_motion_ddot": 0,
        "tle_line1": "1 66988U 25289A   25344.44140095  .00005840  00000+0  24588-3 0  9994",
        "tle_line2": "2 66988  97.5219  49.5452 0003183 188.4341 171.6843 15.23753581   195"
      },
      "geometry": {
        "type": "Point",
        "coordinates": [
          28.413741545725202,
          70.62232518338683
        ]
      }
    },
    {
      "type": "Feature",
      "properties": {
        "norad_id": 66989,
        "name": "CZ-4B R/B",
        "group": "last-30-days",
        "lat": 24.395171043981666,
        "lon": 47.176065535976726,
        "alt_km": 270.42789564630493,
        "timestamp": "2025-12-11T08:58:25.857265+00:00",
        "meta_object_name": "CZ-4B R/B",
        "meta_object_id": "2025-289B",
        "meta_epoch": "2025-12-10T14:28:25.343040",
        "meta_mean_motion": 15.66312523,
        "meta_eccentricity": 0.01519273,
        "meta_inclination": 97.5247,
        "meta_ra_of_asc_node": 49.7881,
        "meta_arg_of_pericenter": 11.1182,
        "meta_mean_anomaly": 349.3371,
        "meta_ephemeris_type": 0,
        "meta_classification_type": "U",
        "meta_norad_cat_id": 66989,
        "meta_element_set_no": 999,
        "meta_rev_at_epoch": 23,
        "meta_bstar": 0.00028721477,
        "meta_mean_motion_dot": 0.00055635,
        "meta_mean_motion_ddot": 3.061406e-06,
        "tle_line1": "1 66989U 25289B   25344.60307110  .00055635  30614-5  28721-3 0  9996",
        "tle_line2": "2 66989  97.5247  49.7881 0151927  11.1182 349.3371 15.66312523   239"
      },
      "geometry": {
        "type": "Point",
        "coordinates": [
          47.176065535976726,
          24.395171043981666
        ]
      }
    },
    {
      "type": "Feature",
      "properties": {
        "norad_id": 66990,
        "name": "TJS-22",
        "group": "last-30-days",
        "lat": 12.36975494385215,
        "lon": -22.407188914390286,
        "alt_km": 23538.955956210346,
        "timestamp": "2025-12-11T08:58:25.857278+00:00",
        "meta_object_name": "TJS-22",
        "meta_object_id": "2025-290A",
        "meta_epoch": "2025-12-10T07:11:32.845344",
        "meta_mean_motion": 2.15443148,
        "meta_eccentricity": 0.6664534,
        "meta_inclination": 20.1261,
        "meta_ra_of_asc_node": 301.1464,
        "meta_arg_of_pericenter": 180.6877,
        "meta_mean_anomaly": 177.6237,
        "meta_ephemeris_type": 0,
        "meta_classification_type": "U",
        "meta_norad_cat_id": 66990,
        "meta_element_set_no": 999,
        "meta_rev_at_epoch": 3,
        "meta_bstar": 0.079788243,
        "meta_mean_motion_dot": -3.8e-07,
        "meta_mean_motion_ddot": 0,
        "tle_line1": "1 66990U 25290A   25344.29968571 -.00000038  00000+0  79788-1 0  9994",
        "tle_line2": "2 66990  20.1261 301.1464 6664534 180.6877 177.6237  2.15443148    32"
      },
      "geometry": {
        "type": "Point",
        "coordinates": [
          -22.407188914390286,
          12.36975494385215
        ]
      }
    }
  ]
}